{"type": "FeatureCollection", "features": [ {"type": "Feature", "properties": {"norad_id": 33492, "name": "GOSAT (IBUKI)", "group": "resource", "lat": 26.459098580732874, "lon": -80.85559671119827, "alt_km": 667.6320116118459, "timestamp": "2025-12-12T11:38:31.072897+00:00", "meta": {"OBJECT_NAME": "GOSAT (IBUKI)", "OBJECT_ID": "2009-002A", "EPOCH": "2025-12-12T04:24:03.751200", "MEAN_MOTION": 14.67553346, "ECCENTRICITY": 9.36e-05, "INCLINATION": 98.0768, "RA_OF_ASC_NODE": 94.7943, "ARG_OF_PERICENTER": 91.2926, "MEAN_ANOMALY": 268.8386, "EPHEMERIS_TYPE": 0, "CLASSIFICATION_TYPE": "U", "NORAD_CAT_ID": 33492, "ELEMENT_SET_NO": 999, "REV_AT_EPOCH": 90403, "BSTAR": 0.00025723, "MEAN_MOTION_DOT": 1.411e-05, "MEAN_MOTION_DDOT": 0}, "tle": {"line1": "1 33492U 09002A   25346.18337675  .00001411  00000+0  25723-3 0  9990", "line2": "2 33492  98.0768  94.7943 0000936  91.2926 268.8386 14.67553346904035"}}, "geometry": {"type": "Point", "coordinates": [-80.85559671119827, 26.459098580732874]}}, {"type": "Feature", "properties": {"norad_id": 35681, "name": "DEIMOS-1", "group": "resource", "lat": -43.76105574242557, "lon": -40.3595054649535, "alt_km": 653.5627689952762, "timestamp": "2025-12-12T11:38:31.072908+00:00", "meta": {"OBJECT_NAME": "DEIMOS-1", "OBJECT_ID": "2009-041A", "EPOCH": "2025-12-12T04:06:58.405248", "MEAN_MOTION": 14.74952034, "ECCENTRICITY": 0.0002726, "INCLINATION": 97.7151, "RA_OF_ASC_NODE": 146.8011, "ARG_OF_PERICENTER": 80.473, "MEAN_ANOMALY": 279.6787, "EPHEMERIS_TYPE": 0, "CLASSIFICATION_TYPE": "U", "NORAD_CAT_ID": 35681, "ELEMENT_SET_NO": 999, "REV_AT_EPOCH": 87931, "BSTAR": 0.00020417, "MEAN_MOTION_DOT": 1.324e-05, "MEAN_MOTION_DDOT": 0}, "tle": {"line1": "1 35681U 09041A   25346.17150932  .00001324  00000+0  20417-3 0  9991", "line2": "2 35681  97.7151 146.8011 0002726  80.4730 279.6787 14.74952034879318"}}, "geometry": {"type": "Point", "coordinates": [-40.3595054649535, -43.76105574242557]}}, {"type": "Feature", "properties": {"norad_id": 35682, "name": "DUBAISAT-1", "group": "resource", "lat": 20.39507814024859, "lon": -59.84263561831883, "alt_km": 652.6139333637684, "timestamp": "2025-12-12T11:38:31.072919+00:00", "meta": {"OBJECT_NAME": "DUBAISAT-1", "OBJECT_ID": "2009-041B", "EPOCH": "2025-12-11T23:31:17.778432", "MEAN_MOTION": 14.7460116, "ECCENTRICITY": 0.00096, "INCLINATION": 97.9785, "RA_OF_ASC_NODE": 116.6709, "ARG_OF_PERICENTER": 317.2917, "MEAN_ANOMALY": 42.7545, "EPHEMERIS_TYPE": 0, "CLASSIFICATION_TYPE": "U", "NORAD_CAT_ID": 35682, "ELEMENT_SET_NO": 999, "REV_AT_EPOCH": 87750, "BSTAR": 0.00034685, "MEAN_MOTION_DOT": 2.263e-05, "MEAN_MOTION_DDOT": 0}, "tle": {"line1": "1 35682U 09041B   25345.98006688  .00002263  00000+0  34685-3 0  9993", "line2": "2 35682  97.9785 116.6709 0009600 317.2917  42.7545 14.74601160877500"}}, "geometry": {"type": "Point", "coordinates": [-59.84263561831883, 20.39507814024859]}}, {"type": "Feature", "properties": {"norad_id": 35931, "name": "OCEANSAT-2", "group": "resource", "lat": 44.85278077633815, "lon": -21.15899155519778, "alt_km": 879.4091575342563, "timestamp": "2025-12-12T11:38:31.072929+00:00", "meta": {"OBJECT_NAME": "OCEANSAT-2", "OBJECT_ID": "2009-051A", "EPOCH": "2025-12-12T04:33:48.127968", "MEAN_MOTION": 13.99624814, "ECCENTRICITY": 0.0016231, "INCLINATION": 98.2223, "RA_OF_ASC_NODE": 346.8466, "ARG_OF_PERICENTER": 46.5076, "MEAN_ANOMALY": 313.7437, "EPHEMERIS_TYPE": 0, "CLASSIFICATION_TYPE": "U", "NORAD_CAT_ID": 35931, "ELEMENT_SET_NO": 999, "REV_AT_EPOCH": 85317, "BSTAR": -6.4318e-05, "MEAN_MOTION_DOT": -1.31e-06, "MEAN_MOTION_DDOT": 0}, "tle": {"line1": "1 35931U 09051A   25346.19014037 -.00000131  00000+0 -64318-4 0  9993", "line2": "2 35931  98.2223 346.8466 0016231  46.5076 313.7437 13.99624814853176"}}, "geometry": {"type": "Point", "coordinates": [-21.15899155519778, 44.85278077633815]}}, {"type": "Feature", "properties": {"norad_id": 35946, "name": "WORLDVIEW-2 (WV-2)", "group": "resource", "lat": 47.28677161100595, "lon": -113.12848459605007, "alt_km": 760.0049038707157, "timestamp": "2025-12-12T11:38:31.072939+00:00", "meta": {"OBJECT_NAME": "WORLDVIEW-2 (WV-2)", "OBJECT_ID": "2009-055A", "EPOCH": "2025-12-12T04:20:59.086752", "MEAN_MOTION": 14.37723723, "ECCENTRICITY": 0.0005144, "INCLINATION": 98.479, "RA_OF_ASC_NODE": 57.2731, "ARG_OF_PERICENTER": 72.3584, "MEAN_ANOMALY": 287.8164, "EPHEMERIS_TYPE": 0, "CLASSIFICATION_TYPE": "U", "NORAD_CAT_ID": 35946, "ELEMENT_SET_NO": 999, "REV_AT_EPOCH": 84877, "BSTAR": 0.00010511, "MEAN_MOTION_DOT": 2.73e-06, "MEAN_MOTION_DDOT": 0}, "tle": {"line1": "1 35946U 09055A   25346.18123943  .00000273  00000+0  10511-3 0  9999", "line2": "2 35946  98.4790  57.2731 0005144  72.3584 287.8164 14.37723723848773"}}, "geometry": {"type": "Point", "coordinates": [-113.12848459605007, 47.28677161100595]}}, {"type": "Feature", "properties": {"norad_id": 36036, "name": "SMOS", "group": "resource", "lat": 14.19774998300609, "lon": -6.310714944474578, "alt_km": 760.1701982625955, "timestamp": "2025-12-12T11:38:31.072949+00:00", "meta": {"OBJECT_NAME": "SMOS", "OBJECT_ID": "2009-059A", "EPOCH": "2025-12-12T02:32:09.754080", "MEAN_MOTION": 14.39740356, "ECCENTRICITY": 0.0001103, "INCLINATION": 98.438, "RA_OF_ASC_NODE": 171.1634, "ARG_OF_PERICENTER": 85.0257, "MEAN_ANOMALY": 275.1057, "EPHEMERIS_TYPE": 0, "CLASSIFICATION_TYPE": "U", "NORAD_CAT_ID": 36036, "ELEMENT_SET_NO": 999, "REV_AT_EPOCH": 84653, "BSTAR": 0.00020528, "MEAN_MOTION_DOT": 6e-06, "MEAN_MOTION_DDOT": 0}, "tle": {"line1": "1 36036U 09059A   25346.10566845  .00000600  00000+0  20528-3 0  9991", "line2": "2 36036  98.4380 171.1634 0001103  85.0257 275.1057 14.39740356846532"}}, "geometry": {"type": "Point", "coordinates": [-6.310714944474578, 14.19774998300609]}}, {"type": "Feature", "properties": {"norad_id": 36110, "name": "YAOGAN-7", "group": "resource", "lat": -43.7032406443553, "lon": -124.0030338466685, "alt_km": 629.5090189429338, "timestamp": "2025-12-12T11:38:31.072959+00:00", "meta": {"OBJECT_NAME": "YAOGAN-7", "OBJECT_ID": "2009-069A", "EPOCH": "2025-12-12T03:42:57.069216", "MEAN_MOTION": 14.77731296, "ECCENTRICITY": 0.0023382, "INCLINATION": 98.0301, "RA_OF_ASC_NODE": 227.9139, "ARG_OF_PERICENTER": 283.2856, "MEAN_ANOMALY": 76.5747, "EPHEMERIS_TYPE": 0, "CLASSIFICATION_TYPE": "U", "NORAD_CAT_ID": 36110, "ELEMENT_SET_NO": 999, "REV_AT_EPOCH": 86200, "BSTAR": 0.00015759, "MEAN_MOTION_DOT": 1.081e-05, "MEAN_MOTION_DDOT": 0}, "tle": {"line1": "1 36110U 09069A   25346.15482719  .00001081  00000+0  15759-3 0  9991", "line2": "2 36110  98.0301 227.9139 0023382 283.2856  76.5747 14.77731296862008"}}, "geometry": {"type": "Point", "coordinates": [-124.0030338466685, -43.7032406443553]}}, {"type": "Feature", "properties": {"norad_id": 36605, "name": "TANDEM-X", "group": "resource", "lat": 16.192111459737774, "lon": 174.04536810495281, "alt_km": 508.9908120644868, "timestamp": "2025-12-12T11:38:31.072970+00:00", "meta": {"OBJECT_NAME": "TANDEM-X", "OBJECT_ID": "2010-030A", "EPOCH": "2025-12-11T11:12:43.510464", "MEAN_MOTION": 15.19157824, "ECCENTRICITY": 0.00018635, "INCLINATION": 97.4452, "RA_OF_ASC_NODE": 350.866, "ARG_OF_PERICENTER": 82.9447, "MEAN_ANOMALY": 277.1999, "EPHEMERIS_TYPE": 0, "CLASSIFICATION_TYPE": "U", "NORAD_CAT_ID": 36605, "ELEMENT_SET_NO": 999, "REV_AT_EPOCH": 85814, "BSTAR": 0.00012772132, "MEAN_MOTION_DOT": 2.617e-05, "MEAN_MOTION_DDOT": 0}, "tle": {"line1": "1 36605U 10030A   25345.46717026  .00002617  00000+0  12772-3 0  9993", "line2": "2 36605  97.4452 350.8660 0001863  82.9447 277.1999 15.19157824858146"}}, "geometry": {"type": "Point", "coordinates": [174.04536810495281, 16.192111459737774]}}, {"type": "Feature", "properties": {"norad_id": 36795, "name": "CARTOSAT-2B", "group": "resource", "lat": -61.328868403772695, "lon": -158.96534149626126, "alt_km": 649.3869199682758, "timestamp": "2025-12-12T11:38:31.072980+00:00", "meta": {"OBJECT_NAME": "CARTOSAT-2B", "OBJECT_ID": "2010-035A", "EPOCH": "2025-12-12T04:03:16.036704", "MEAN_MOTION": 14.78725544, "ECCENTRICITY": 0.0013108, "INCLINATION": 97.7853, "RA_OF_ASC_NODE": 35.2178, "ARG_OF_PERICENTER": 78.4942, "MEAN_ANOMALY": 281.774, "EPHEMERIS_TYPE": 0, "CLASSIFICATION_TYPE": "U", "NORAD_CAT_ID": 36795, "ELEMENT_SET_NO": 999, "REV_AT_EPOCH": 83221, "BSTAR": 0.0005988, "MEAN_MOTION_DOT": 4.352e-05, "MEAN_MOTION_DDOT": 0}, "tle": {"line1": "1 36795U 10035A   25346.16893561  .00004352  00000+0  59880-3 0  9994", "line2": "2 36795  97.7853  35.2178 0013108  78.4942 281.7740 14.78725544832216"}}, "geometry": {"type": "Point", "coordinates": [-158.96534149626126, -61.328868403772695]}}, {"type": "Feature", "properties": {"norad_id": 36834, "name": "YAOGAN-10", "group": "resource", "lat": -42.600688527956336, "lon": 13.657616990473123, "alt_km": 622.0866073463876, "timestamp": "2025-12-12T11:38:31.072991+00:00", "meta": {"OBJECT_NAME": "YAOGAN-10", "OBJECT_ID": "2010-038A", "EPOCH": "2025-12-12T05:39:48.254688", "MEAN_MOTION": 14.84608419, "ECCENTRICITY": 0.0001555, "INCLINATION": 97.9148, "RA_OF_ASC_NODE": 6.0604, "ARG_OF_PERICENTER": 82.9782, "MEAN_ANOMALY": 343.4607, "EPHEMERIS_TYPE": 0, "CLASSIFICATION_TYPE": "U", "NORAD_CAT_ID": 36834, "ELEMENT_SET_NO": 999, "REV_AT_EPOCH": 82946, "BSTAR": 0.00058428, "MEAN_MOTION_DOT": 4.884e-05, "MEAN_MOTION_DDOT": 0}, "tle": {"line1": "1 36834U 10038A   25346.23597517  .00004884  00000+0  58428-3 0  9998", "line2": "2 36834  97.9148   6.0604 0001555  82.9782 343.4607 14.84608419829463"}}, "geometry": {"type": "Point", "coordinates": [13.657616990473123, -42.600688527956336]}}]}